NORAD_CAT_ID,OBJECT_NAME,OBJECT_TYPE,EPOCH,MEAN_MOTION,ECCENTRICITY,INCLINATION,RA_OF_ASC_NODE,ARG_OF_PERICENTER,MEAN_ANOMALY,BSTAR,MEAN_MOTION_DOT,MEAN_MOTION_DDOT,TLE_LINE0,TLE_LINE1,TLE_LINE2,SEMIMAJOR_AXIS,PERIOD,APOGEE,PERIGEE,DECAYED
55427.0,STARLINK-5073,PAYLOAD,2024-06-25 12:09:23,14.98328918,0.0003505,69.9991,213.2617,266.0963,93.9796,-2.1691e-06,-1.19e-06,0.0,0 STARLINK-5073,1 55427U 23014AN  24177.50652376 -.00000119  00000-0 -21691-5 0  9995,2 55427  69.9991 213.2617 0003505 266.0963  93.9796 14.98328918 78365,6950.196,96.107,574.497,569.625,0.0
55427.0,STARLINK-5073,PAYLOAD,2024-06-26 04:10:43,14.98338045,0.0003564,69.999,211.5782,267.6391,92.436,-1.5776e-05,-2.81e-06,0.0,0 STARLINK-5073,1 55427U 23014AN  24178.17411645 -.00000281  00000-0 -15776-4 0  9997,2 55427  69.9990 211.5782 0003564 267.6391  92.4360 14.98338045 77525,6950.168,96.106,574.51,569.556,0.0
55427.0,STARLINK-5073,PAYLOAD,2024-06-26 10:35:15,14.98338415,0.0003583,69.999,210.9049,268.0683,92.0066,-9.7064e-06,-2.09e-06,0.0,0 STARLINK-5073,1 55427U 23014AN  24178.44115490 -.00000209  00000-0 -97064-5 0  9997,2 55427  69.9990 210.9049 0003583 268.0683  92.0066 14.98338415 78503,6950.167,96.106,574.522,569.542,0.0
55427.0,STARLINK-5073,PAYLOAD,2024-06-27 04:12:44,14.9832845,0.00036,69.9987,209.0528,266.4739,93.6008,4.2194e-05,4.1e-06,0.0,0 STARLINK-5073,1 55427U 23014AN  24179.17551877  .00000410  00000-0  42194-4 0  9996,2 55427  69.9987 209.0528 0003600 266.4739  93.6008 14.98328450 77672,6950.198,96.107,574.565,569.561,0.0
55427.0,STARLINK-5073,PAYLOAD,2024-06-27 18:37:57,14.98329886,0.0003702,69.9987,207.5375,270.7494,89.3241,2.7329e-05,2.33e-06,0.0,0 STARLINK-5073,1 55427U 23014AN  24179.77635911  .00000233  00000-0  27329-4 0  9990,2 55427  69.9987 207.5375 0003702 270.7494  89.3241 14.98329886 78704,6950.193,96.107,574.631,569.485,0.0
55427.0,STARLINK-5073,PAYLOAD,2024-06-28 04:14:45,14.9833182,0.000371,69.9986,206.5276,270.0727,90.0007,1.0815e-05,3.6e-07,0.0,0 STARLINK-5073,1 55427U 23014AN  24180.17691839  .00000036  00000-0  10815-4 0  9990,2 55427  69.9986 206.5276 0003710 270.0727  90.0007 14.98331820 77825,6950.187,96.107,574.631,569.474,0.0
55427.0,STARLINK-5073,PAYLOAD,2024-06-28 10:39:17,14.98333414,0.0003696,69.9986,205.8546,268.9747,91.0989,1.8115e-05,1.23e-06,0.0,0 STARLINK-5073,1 55427U 23014AN  24180.44395672  .00000123  00000-0  18115-4 0  9994,2 55427  69.9986 205.8546 0003696 268.9747  91.0989 14.98333414 78808,6950.182,96.107,574.616,569.479,0.0
55427.0,STARLINK-5073,PAYLOAD,2024-06-29 04:16:46,14.98329524,0.0003716,69.9986,204.0032,268.3243,91.7491,5.5323e-05,5.67e-06,0.0,0 STARLINK-5073,1 55427U 23014AN  24181.17831837  .00000567  00000-0  55323-4 0  9997,2 55427  69.9986 204.0032 0003716 268.3243  91.7491 14.98329524 77976,6950.194,96.107,574.642,569.477,0.0
55427.0,STARLINK-5073,PAYLOAD,2024-06-29 12:17:26,14.98331541,0.0003703,69.9985,203.1615,268.2284,91.845,7.3229e-05,7.81e-06,0.0,0 STARLINK-5073,1 55427U 23014AN  24181.51211679  .00000781  00000-0  73229-4 0  9994,2 55427  69.9985 203.1615 0003703 268.2284  91.8450 14.98331541 78960,6950.188,96.107,574.627,569.479,0.0
55427.0,STARLINK-5073,PAYLOAD,2024-06-29 18:41:59,14.98328701,0.0003688,69.9985,202.488,269.2023,90.8714,4.0369e-05,3.89e-06,0.0,0 STARLINK-5073,1 55427U 23014AN  24181.77915960  .00000389  00000-0  40369-4 0  9999,2 55427  69.9985 202.4880 0003688 269.2023  90.8714 14.98328701 79002,6950.197,96.107,574.625,569.499,0.0
55427.0,STARLINK-5073,PAYLOAD,2024-06-30 04:18:47,14.98326899,0.0003642,69.9985,201.4778,269.0684,91.0058,-9.0496e-07,-1.04e-06,0.0,0 STARLINK-5073,1 55427U 23014AN  24182.17972220 -.00000104  00000-0 -90496-6 0  9991,2 55427  69.9985 201.4778 0003642 269.0684  91.0058 14.98326899 78120,6950.202,96.107,574.599,569.536,0.0
55427.0,STARLINK-5073,PAYLOAD,2024-06-30 10:43:20,14.98327808,0.0003625,69.9985,200.8048,268.2604,91.814,5.1143e-06,-3.2e-07,0.0,0 STARLINK-5073,1 55427U 23014AN  24182.44676175 -.00000032  00000-0  51143-5 0  9995,2 55427  69.9985 200.8048 0003625 268.2604  91.8140 14.98327808 79107,6950.2,96.107,574.584,569.545,0.0
55427.0,STARLINK-5073,PAYLOAD,2024-06-30 18:44:00,14.98329162,0.0003701,69.9983,199.9629,268.9588,91.1147,3.0429e-05,2.7e-06,0.0,0 STARLINK-5073,1 55427U 23014AN  24182.78056042  .00000270  00000-0  30429-4 0  9993,2 55427  69.9983 199.9629 0003701 268.9588  91.1147 14.98329162 79151,6950.195,96.107,574.633,569.488,0.0
55427.0,STARLINK-5073,PAYLOAD,2024-07-01 04:20:48,14.98332071,0.0003726,69.9982,198.9529,268.7727,91.3005,5.0291e-05,5.07e-06,0.0,0 STARLINK-5073,1 55427U 23014AN  24183.18111802  .00000507  00000-0  50291-4 0  9996,2 55427  69.9982 198.9529 0003726 268.7727  91.3005 14.98332071 78278,6950.186,96.107,574.641,569.462,0.0
55427.0,STARLINK-5073,PAYLOAD,2024-07-01 13:57:36,14.98334073,0.0003744,69.9982,197.9429,268.7927,91.2803,6.6534e-05,7.01e-06,0.0,0 STARLINK-5073,1 55427U 23014AN  24183.58167573  .00000701  00000-0  66534-4 0  9999,2 55427  69.9982 197.9429 0003744 268.7927  91.2803 14.98334073 79278,6950.18,96.107,574.647,569.443,0.0
55427.0,STARLINK-5073,PAYLOAD,2024-07-01 18:45:58,14.98359441,0.0003692,69.9982,197.4378,270.2548,89.8188,0.00035073,4.098e-05,0.0,0 STARLINK-5073,1 55427U 23014AN  24183.78193114  .00004098  00000-0  35073-3 0  9997,2 55427  69.9982 197.4378 0003692 270.2548  89.8188 14.98359441 78369,6950.102,96.105,574.533,569.401,0.0
55427.0,STARLINK-5073,PAYLOAD,2024-07-02 12:23:29,14.98325725,0.0003528,69.9982,195.5864,270.074,90.0014,-2.1453e-05,-3.49e-06,0.0,0 STARLINK-5073,1 55427U 23014AN  24184.51631527 -.00000349  00000-0 -21453-4 0  9999,2 55427  69.9982 195.5864 0003528 270.0740  90.0014 14.98325725 78470,6950.206,96.107,574.523,569.619,0.0
55427.0,STARLINK-5073,PAYLOAD,2024-07-02 13:59:37,14.98326037,0.0003523,69.9982,195.418,270.0186,90.057,-1.8598e-05,-3.15e-06,0.0,0 STARLINK-5073,1 55427U 23014AN  24184.58307508 -.00000315  00000-0 -18598-4 0  9994,2 55427  69.9982 195.4180 0003523 270.0186  90.0570 14.98326037 79429,6950.205,96.107,574.519,569.622,0.0
55427.0,STARLINK-5073,PAYLOAD,2024-07-02 15:35:45,14.98324476,0.0003511,69.9982,195.2497,270.1559,89.9198,-4.2601e-05,-6.01e-06,0.0,0 STARLINK-5073,1 55427U 23014AN  24184.64983637 -.00000601  00000-0 -42601-4 0  9994,2 55427  69.9982 195.2497 0003511 270.1559  89.9198 14.98324476 79439,6950.21,96.107,574.515,569.635,0.0
55427.0,STARLINK-5073,PAYLOAD,2024-07-03 17:13:54,14.98327954,0.0003488,69.9984,192.5567,269.9092,90.1667,-5.6685e-05,-7.69e-06,0.0,0 STARLINK-5073,1 55427U 23014AN  24185.71799640 -.00000769  00000-0 -56685-4 0  9994,2 55427  69.9984 192.5567 0003488 269.9092  90.1667 14.98327954 78652,6950.199,96.107,574.488,569.64,0.0
55427.0,STARLINK-5073,PAYLOAD,2024-07-04 04:26:50,14.98339858,0.0003465,69.9984,191.3784,270.8724,89.2038,-0.00026381,-3.24e-05,0.0,0 STARLINK-5073,1 55427U 23014AN  24186.18531213 -.00003240  00000-0 -26381-3 0  9992,2 55427  69.9984 191.3784 0003465 270.8724  89.2038 14.98339858 78723,6950.162,96.106,574.436,569.619,0.0
55427.0,STARLINK-5073,PAYLOAD,2024-07-04 14:03:39,14.98321726,0.0003321,69.9985,190.3685,270.8911,89.1867,0.00010289,1.135e-05,0.0,0 STARLINK-5073,1 55427U 23014AN  24186.58587584  .00001135  00000-0  10289-3 0  9997,2 55427  69.9985 190.3685 0003321 270.8911  89.1867 14.98321726 79727,6950.218,96.108,574.392,569.775,0.0
55427.0,STARLINK-5073,PAYLOAD,2024-07-04 17:15:55,14.98323401,0.000332,69.9986,190.0319,270.8499,89.2279,9.9255e-05,1.091e-05,0.0,0 STARLINK-5073,1 55427U 23014AN  24186.71939559  .00001091  00000-0  99255-4 0  9997,2 55427  69.9986 190.0319 0003320 270.8499  89.2279 14.98323401 78807,6950.213,96.107,574.386,569.771,0.0
55427.0,STARLINK-5073,PAYLOAD,2024-07-05 09:17:16,14.98326074,0.0003328,69.9987,188.3487,269.9616,90.1161,0.00014205,1.602e-05,0.0,0 STARLINK-5073,1 55427U 23014AN  24187.38699657  .00001602  00000-0  14205-3 0  9992,2 55427  69.9987 188.3487 0003328 269.9616  90.1161 14.98326074 79847,6950.205,96.107,574.383,569.757,0.0
55427.0,STARLINK-5073,PAYLOAD,2024-07-06 04:30:53,14.9833116,0.0003341,69.9987,186.3289,269.5968,90.4808,0.00013876,1.563e-05,0.0,0 STARLINK-5073,1 55427U 23014AN  24188.18811506  .00001563  00000-0  13876-3 0  9999,2 55427  69.9987 186.3289 0003341 269.5968  90.4808 14.98331160 79029,6950.189,96.107,574.376,569.732,0.0
55427.0,STARLINK-5073,PAYLOAD,2024-07-06 09:19:17,14.98332969,0.0003335,69.9988,185.8239,269.2678,90.8099,0.00014176,1.599e-05,0.0,0 STARLINK-5073,1 55427U 23014AN  24188.38839397  .00001599  00000-0  14176-3 0  9992,2 55427  69.9988 185.8239 0003335 269.2678  90.8099 14.98332969 79997,6950.184,96.107,574.367,569.731,0.0
55427.0,STARLINK-5073,PAYLOAD,2024-07-07 04:32:54,14.9832931,0.0003291,69.9989,183.8041,268.7495,91.3287,3.7833e-05,3.58e-06,0.0,0 STARLINK-5073,1 55427U 23014AN  24189.18951788  .00000358  00000-0  37833-4 0  9998,2 55427  69.9989 183.8041 0003291 268.7495  91.3287 14.98329310 79170,6950.195,96.107,574.347,569.773,0.0
55427.0,STARLINK-5073,PAYLOAD,2024-07-07 09:21:18,14.98330437,0.0003309,69.9989,183.2996,269.9713,90.1067,3.4143e-05,3.14e-06,0.0,0 STARLINK-5073,1 55427U 23014AN  24189.38979713  .00000314  00000-0  34143-4 0  9991,2 55427  69.9989 183.2996 0003309 269.9713  90.1067 14.98330437 80143,6950.192,96.107,574.356,569.757,0.0
55427.0,STARLINK-5073,PAYLOAD,2024-07-08 09:23:19,14.98334514,0.0003267,69.999,180.7747,269.3448,90.7337,3.8313e-05,3.64e-06,0.0,0 STARLINK-5073,1 55427U 23014AN  24190.39119288  .00000364  00000-0  38313-4 0  9995,2 55427  69.9990 180.7747 0003267 269.3448  90.7337 14.98334514 79350,6950.179,96.107,574.315,569.773,0.0
55427.0,STARLINK-5073,PAYLOAD,2024-07-08 22:12:23,14.98330889,0.000324,69.9991,179.4281,269.3475,90.7313,8.3002e-05,8.97e-06,0.0,0 STARLINK-5073,1 55427U 23014AN  24190.92527371  .00000897  00000-0  83002-4 0  9996,2 55427  69.9991 179.4281 0003240 269.3475  90.7313 14.98330889 80379,6950.19,96.107,574.307,569.803,0.0
